{
    "links": {
        "self": "http://www.neowsapp.com/rest/v1/neo/3645194?api_key=iIulBulltgU6a56xZRHN4H3l9WmuAYTsLGpBGhQ2"
    },
    "id": "3645194",
    "neo_reference_id": "3645194",
    "name": "(2013 NE24)",
    "designation": "2013 NE24",
    "nasa_jpl_url": "http://ssd.jpl.nasa.gov/sbdb.cgi?sstr=3645194",
    "absolute_magnitude_h": 27.3,
    "estimated_diameter": {
        "kilometers": {
            "estimated_diameter_min": 0.0092162655,
            "estimated_diameter_max": 0.0206081961
        },
        "meters": {
            "estimated_diameter_min": 9.216265485,
            "estimated_diameter_max": 20.6081961232
        },
        "miles": {
            "estimated_diameter_min": 0.0057267201,
            "estimated_diameter_max": 0.0128053354
        },
        "feet": {
            "estimated_diameter_min": 30.2370924539,
            "estimated_diameter_max": 67.6121941689
        }
    },
    "is_potentially_hazardous_asteroid": false,
    "close_approach_data": [
        {
            "close_approach_date": "2013-07-07",
            "close_approach_date_full": "2013-Jul-07 03:52",
            "epoch_date_close_approach": 1373169120000,
            "relative_velocity": {
                "kilometers_per_second": "12.5189348298",
                "kilometers_per_hour": "45068.1653872598",
                "miles_per_hour": "28003.6053207671"
            },
            "miss_distance": {
                "astronomical": "0.0066169159",
                "lunar": "2.5739802851",
                "kilometers": "989876.524609133",
                "miles": "615080.7507187154"
            },
            "orbiting_body": "Moon"
        },
        {
            "close_approach_date": "2013-07-07",
            "close_approach_date_full": "2013-Jul-07 08:58",
            "epoch_date_close_approach": 1373187480000,
            "relative_velocity": {
                "kilometers_per_second": "11.755034843",
                "kilometers_per_hour": "42318.125434827",
                "miles_per_hour": "26294.8374403235"
            },
            "miss_distance": {
                "astronomical": "0.0052401587",
                "lunar": "2.0384217343",
                "kilometers": "783916.579981969",
                "miles": "487103.1755264122"
            },
            "orbiting_body": "Earth"
        }
    ],
    "orbital_data": {
        "orbit_id": "5",
        "orbit_determination_date": "2017-04-06 08:45:20",
        "first_observation_date": "2013-07-14",
        "last_observation_date": "2013-07-15",
        "data_arc_in_days": 1,
        "observations_used": 6,
        "orbit_uncertainty": "9",
        "minimum_orbit_intersection": ".00427247",
        "jupiter_tisserand_invariant": "2.964",
        "epoch_osculation": "2456488.5",
        "eccentricity": ".6612460776451656",
        "semi_major_axis": "2.788691092467826",
        "inclination": ".4070438351687867",
        "ascending_node_longitude": "320.5548041611599",
        "orbital_period": "1700.979349211489",
        "perihelion_distance": ".9446800458094643",
        "perihelion_argument": "289.3615719062174",
        "aphelion_distance": "4.632702139126188",
        "perihelion_time": "2456454.114751342936",
        "mean_anomaly": "7.277389653367244",
        "mean_motion": ".2116427810642632",
        "equinox": "J2000",
        "orbit_class": {
            "orbit_class_type": "APO",
            "orbit_class_description": "Near-Earth asteroid orbits which cross the Earth’s orbit similar to that of 1862 Apollo",
            "orbit_class_range": "a (semi-major axis) > 1.0 AU; q (perihelion) < 1.017 AU"
        }
    },
    "is_sentry_object": false
}